STARLINK-35886          
1 66838U 25280T   26181.01321006  .00006200  00000+0  52687-3 0  9997
2 66838  70.0018  51.1379 0002896 265.8910  94.1918 14.98337158 32906
STARLINK-35717          
1 66839U 25280U   26180.96315107  .00006177  00000+0  52495-3 0  9996
2 66839  70.0018  51.3655 0002952 267.5292  92.5529 14.98333347 32895
STARLINK-35837          
1 66840U 25280V   26181.04659108  .00002366  00000+0  20595-3 0  9992
2 66840  70.0017  51.2590 0002335 270.5709  89.5183 14.98334800 32904
STARLINK-35715          
1 66841U 25280W   26181.05493824  .00003786  00000+0  32480-3 0  9998
2 66841  70.0018  51.2863 0002593 268.6402  91.4460 14.98339600 32906
STARLINK-35769          
1 66842U 25280X   26181.07162067  .00007032  00000+0  59624-3 0  9990
2 66842  70.0018  50.9418 0002489 274.9925  85.0950 14.98352486 32914
STARLINK-35997          
1 66843U 25280Y   26181.02155681  .00006271  00000+0  53274-3 0  9999
2 66843  70.0015  51.1655 0002863 269.3744  90.7087 14.98338119 32901
STARLINK-36073          
1 66844U 25280Z   26180.97148085  .00002543  00000+0  22084-3 0  9996
2 66844  70.0016  51.3956 0002890 269.1310  90.9518 14.98335158 32862
STARLINK-36068          
1 66845U 25280AA  26181.07578443  .00005260  00000+0  44839-3 0  9995
2 66845  70.0019  50.9549 0003025 270.1297  89.9515 14.98324676 32910
STARLINK-36055          
1 66846U 25280AB  26181.05076252  .00003364  00000+0  28950-3 0  9994
2 66846  70.0013  51.2731 0003002 269.5675  90.5140 14.98338290 32918
STARLINK-36061          
1 66847U 25280AC  26181.59319136  .00003122  00000+0  26928-3 0  9990
2 66847  70.0017  49.9536 0002566 269.5603  90.5262 14.98338328 32989
STARLINK-36091          
1 66848U 25281A   26180.97126915  .00015549  00000+0  57314-3 0  9993
2 66848  43.0002  69.7070 0001684 271.5375  88.5284 15.27593797 32039
STARLINK-36102          
1 66849U 25281B   26180.96099054  .00019700  00000+0  72320-3 0  9993
2 66849  43.0024  69.6304 0002006 282.1249  77.9377 15.27592493 33353
STARLINK-36105          
1 66850U 25281C   26180.95713236  .00033325  00000+0  12140-2 0  9991
2 66850  43.0017  69.5996 0002099 274.2860  85.7752 15.27608112 33356
STARLINK-36094          
1 66851U 25281D   26180.74298892  .00020395  00000+0  74825-3 0  9997
2 66851  43.0034  70.5688 0001729 278.5896  81.4760 15.27594953 33327
STARLINK-35992          
1 66852U 25281E   26181.00067780  .00031556  00000+0  11512-2 0  9992
2 66852  43.0029  69.0638 0001579 273.1109  86.9562 15.27584495 33365
STARLINK-35986          
1 66853U 25281F   26180.99681910  .00017858  00000+0  65672-3 0  9993
2 66853  43.0042  69.0346 0001596 269.2427  90.8242 15.27588024 33366
STARLINK-36087          
1 66854U 25281G   26180.99296171  .00028748  00000+0  10498-2 0  9990
2 66854  43.0026  69.0038 0002849 284.6715  75.3821 15.27587967 33366
STARLINK-36090          
1 66855U 25281H   26180.98268170  .00019937  00000+0  73162-3 0  9996
2 66855  42.9998  68.9209 0001493 274.8621  85.2060 15.27599996 33362
STARLINK-36072          
1 66856U 25281J   26180.97512318  .00028579  00000+0  10437-2 0  9999
2 66856  42.9952  69.7348 0000440 249.8879 110.1925 15.27591490 33352
STARLINK-36083          
1 66857U 25281K   26180.96741221  .00017794  00000+0  65439-3 0  9996
2 66857  43.0011  69.6773 0001788 277.6683  82.3966 15.27590143 33359
STARLINK-35118          
1 66858U 25281L   26180.75712223  .00019371  00000+0  71156-3 0  9990
2 66858  43.0027  70.6758 0002126 283.0656  76.9958 15.27582213 33326
STARLINK-35646          
1 66859U 25281M   26180.75328182  .00026962  00000+0  98583-3 0  9995
2 66859  43.0017  70.6472 0002586 292.4403  67.6175 15.27575108 33326
STARLINK-35987          
1 66860U 25281N   26180.99809079  .00018327  00000+0  67324-3 0  9997
2 66860  43.0015  69.0415 0001689 273.4049  86.6610 15.27609389 33361
STARLINK-35991          
1 66861U 25281P   26180.98910873  .00018988  00000+0  69754-3 0  9994
2 66861  42.9972  68.9748 0000879 264.8488  95.2264 15.27590590 33364
STARLINK-35974          
1 66862U 25281Q   26181.01095419  .00016652  00000+0  61304-3 0  9999
2 66862  43.0041  69.1415 0001682 279.5429  80.5232 15.27593228 33362
STARLINK-36134          
1 66863U 25281R   26180.97883073  .00016947  00000+0  62369-3 0  9994
2 66863  42.9996  68.8886 0001401 273.3639  86.7052 15.27593052 33365
STARLINK-36070          
1 66864U 25281S   26180.96484880  .00028208  00000+0  10299-2 0  9994
2 66864  43.0033  69.6577 0001483 283.1424  76.9262 15.27604651 33358
STARLINK-36117          
1 66865U 25281T   26180.72499551  .00015169  00000+0  55971-3 0  9999
2 66865  43.0011  70.4302 0001520 267.5223  92.5455 15.27575086 33320
STARLINK-36126          
1 66866U 25281U   26180.97640871  .00028195  00000+0  10295-2 0  9992
2 66866  43.0001  69.7422 0001839 272.1818  87.8823 15.27601026 33341
STARLINK-36101          
1 66867U 25281V   26180.97255314  .00019332  00000+0  70994-3 0  9993
2 66867  43.0007  69.7134 0001615 271.0749  88.9917 15.27592003 33341
