OBJECT_NAME,OBJECT_ID,EPOCH,MEAN_MOTION,ECCENTRICITY,INCLINATION,RA_OF_ASC_NODE,ARG_OF_PERICENTER,MEAN_ANOMALY,EPHEMERIS_TYPE,CLASSIFICATION_TYPE,NORAD_CAT_ID,ELEMENT_SET_NO,REV_AT_EPOCH,BSTAR,MEAN_MOTION_DOT,MEAN_MOTION_DDOT
STARLINK-35886,2025-280T,2026-06-30T00:19:01.349184,14.98337158,.00028969,70.0018,51.1379,265.8910,94.1918,0,U,66838,999,3290,.52686793E-3,.62E-4,0
STARLINK-35717,2025-280U,2026-06-29T23:06:56.252448,14.98333347,.00029528,70.0018,51.3655,267.5292,92.5529,0,U,66839,999,3289,.5249489E-3,.6177E-4,0
STARLINK-35837,2025-280V,2026-06-30T01:07:05.469312,14.98334800,.00023353,70.0017,51.2590,270.5709,89.5183,0,U,66840,999,3290,.20595213E-3,.2366E-4,0
STARLINK-35715,2025-280W,2026-06-30T01:19:06.663936,14.98339600,.00025938,70.0018,51.2863,268.6402,91.4460,0,U,66841,999,3290,.32480162E-3,.3786E-4,0
STARLINK-35769,2025-280X,2026-06-30T01:43:08.025888,14.98352486,.00024892,70.0018,50.9418,274.9925,85.0950,0,U,66842,999,3291,.59623826E-3,.7032E-4,0
STARLINK-35997,2025-280Y,2026-06-30T00:31:02.508384,14.98338119,.00028631,70.0015,51.1655,269.3744,90.7087,0,U,66843,999,3290,.53274208E-3,.6271E-4,0
STARLINK-36073,2025-280Z,2026-06-29T23:18:55.945440,14.98335158,.00028907,70.0016,51.3956,269.1310,90.9518,0,U,66844,999,3286,.22083967E-3,.2543E-4,0
STARLINK-36068,2025-280AA,2026-06-30T01:49:07.774752,14.98324676,.00030251,70.0019,50.9549,270.1297,89.9515,0,U,66845,999,3291,.44839258E-3,.526E-4,0
STARLINK-36055,2025-280AB,2026-06-30T01:13:05.881728,14.98338290,.00030025,70.0013,51.2731,269.5675,90.5140,0,U,66846,999,3291,.28949654E-3,.3364E-4,0
STARLINK-36061,2025-280AC,2026-06-30T14:14:11.733504,14.98338328,.00025665,70.0017,49.9536,269.5603,90.5262,0,U,66847,999,3298,.26928412E-3,.3122E-4,0
STARLINK-36091,2025-281A,2026-06-29T23:18:37.654560,15.27593797,.00016841,43.0002,69.7070,271.5375,88.5284,0,U,66848,999,3203,.57313548E-3,.15549E-3,0
STARLINK-36102,2025-281B,2026-06-29T23:03:49.582656,15.27592493,.00020066,43.0024,69.6304,282.1249,77.9377,0,U,66849,999,3335,.72320479E-3,.197E-3,0
STARLINK-36105,2025-281C,2026-06-29T22:58:16.235904,15.27608112,.00020995,43.0017,69.5996,274.2860,85.7752,0,U,66850,999,3335,.12139888E-2,.33325E-3,0
STARLINK-36094,2025-281D,2026-06-29T17:49:54.242688,15.27594953,.0001729,43.0034,70.5688,278.5896,81.4760,0,U,66851,999,3332,.7482499E-3,.20395E-3,0
STARLINK-35992,2025-281E,2026-06-30T00:00:58.561920,15.27584495,.00015797,43.0029,69.0638,273.1109,86.9562,0,U,66852,999,3336,.11511954E-2,.31556E-3,0
STARLINK-35986,2025-281F,2026-06-29T23:55:25.170240,15.27588024,.00015966,43.0042,69.0346,269.2427,90.8242,0,U,66853,999,3336,.65671903E-3,.17858E-3,0
STARLINK-36087,2025-281G,2026-06-29T23:49:51.891744,15.27587967,.00028495,43.0026,69.0038,284.6715,75.3821,0,U,66854,999,3336,.10498092E-2,.28748E-3,0
STARLINK-36090,2025-281H,2026-06-29T23:35:03.698880,15.27599996,.00014936,42.9998,68.9209,274.8621,85.2060,0,U,66855,999,3336,.73162348E-3,.19937E-3,0
STARLINK-36072,2025-281J,2026-06-29T23:24:10.642752,15.27591490,.00004408,42.9952,69.7348,249.8879,110.1925,0,U,66856,999,3335,.10436592E-2,.28579E-3,0
STARLINK-36083,2025-281K,2026-06-29T23:13:04.414944,15.27590143,.00017887,43.0011,69.6773,277.6683,82.3966,0,U,66857,999,3335,.65438982E-3,.17794E-3,0
STARLINK-35118,2025-281L,2026-06-29T18:10:15.360672,15.27582213,.00021265,43.0027,70.6758,283.0656,76.9958,0,U,66858,999,3332,.71155656E-3,.19371E-3,0
STARLINK-35646,2025-281M,2026-06-29T18:04:43.549248,15.27575108,.00025862,43.0017,70.6472,292.4403,67.6175,0,U,66859,999,3332,.98583245E-3,.26962E-3,0
STARLINK-35987,2025-281N,2026-06-29T23:57:15.044256,15.27609389,.0001689,43.0015,69.0415,273.4049,86.6610,0,U,66860,999,3336,.67323614E-3,.18327E-3,0
STARLINK-35991,2025-281P,2026-06-29T23:44:18.994272,15.27590590,.00008793,42.9972,68.9748,264.8488,95.2264,0,U,66861,999,3336,.69753514E-3,.18988E-3,0
STARLINK-35974,2025-281Q,2026-06-30T00:15:46.442016,15.27593228,.00016825,43.0041,69.1415,279.5429,80.5232,0,U,66862,999,3336,.61303848E-3,.16652E-3,0
STARLINK-36134,2025-281R,2026-06-29T23:29:30.975072,15.27593052,.00014011,42.9996,68.8886,273.3639,86.7052,0,U,66863,999,3336,.62368742E-3,.16947E-3,0
STARLINK-36070,2025-281S,2026-06-29T23:09:22.936320,15.27604651,.00014839,43.0033,69.6577,283.1424,76.9262,0,U,66864,999,3335,.10298815E-2,.28208E-3,0
STARLINK-36117,2025-281T,2026-06-29T17:23:59.612064,15.27575086,.00015204,43.0011,70.4302,267.5223,92.5455,0,U,66865,999,3332,.55971184E-3,.15169E-3,0
STARLINK-36126,2025-281U,2026-06-29T23:26:01.712544,15.27601026,.00018395,43.0001,69.7422,272.1818,87.8823,0,U,66866,999,3334,.10295304E-2,.28195E-3,0
STARLINK-36101,2025-281V,2026-06-29T23:20:28.591296,15.27592003,.00016157,43.0007,69.7134,271.0749,88.9917,0,U,66867,999,3334,.70993664E-3,.19332E-3,0
